NORAD_CAT_ID,OBJECT_NAME,OBJECT_TYPE,EPOCH,MEAN_MOTION,ECCENTRICITY,INCLINATION,RA_OF_ASC_NODE,ARG_OF_PERICENTER,MEAN_ANOMALY,BSTAR,MEAN_MOTION_DOT,MEAN_MOTION_DDOT,TLE_LINE0,TLE_LINE1,TLE_LINE2,SEMIMAJOR_AXIS,PERIOD,APOGEE,PERIGEE,DECAYED
53734.0,STARLINK-4616,PAYLOAD,2024-08-10 12:58:29,15.08843414,0.0001621,53.2161,320.6306,95.361,264.7567,0.00028148,4.195e-05,0.0,0 STARLINK-4616,1 53734U 22107AL  24223.54061730  .00004195  00000-0  28148-3 0  9998,2 53734  53.2161 320.6306 0001621  95.3610 264.7567 15.08843414106974,6917.87,95.437,540.856,538.614,0.0
53734.0,STARLINK-4616,PAYLOAD,2024-08-10 16:09:15,15.08852248,0.0001703,53.2166,320.0328,113.4113,246.7058,0.00049107,7.539e-05,0.0,0 STARLINK-4616,1 53734U 22107AL  24223.67309375  .00007539  00000-0  49107-3 0  9995,2 53734  53.2166 320.0328 0001703 113.4113 246.7058 15.08852248107621,6917.843,95.437,540.886,538.53,0.0
53734.0,STARLINK-4616,PAYLOAD,2024-08-11 00:06:10,15.08867062,0.0001799,53.2166,318.5465,124.7633,235.3528,0.00092702,0.00014507,0.0,0 STARLINK-4616,1 53734U 22107AL  24224.00428827  .00014507  00000-0  92702-3 0  9999,2 53734  53.2166 318.5465 0001799 124.7633 235.3528 15.08867062107044,6917.798,95.436,540.907,538.418,0.0
53734.0,STARLINK-4616,PAYLOAD,2024-08-11 12:49:15,15.08850632,0.0002167,53.2137,316.1714,83.2637,276.8601,0.00030929,4.639e-05,0.0,0 STARLINK-4616,1 53734U 22107AL  24224.53421205  .00004639  00000-0  30929-3 0  9998,2 53734  53.2137 316.1714 0002167  83.2637 276.8601 15.08850632107122,6917.848,95.437,541.212,538.214,0.0
53734.0,STARLINK-4616,PAYLOAD,2024-08-12 12:40:03,15.08845692,3.62e-05,53.2171,311.7042,355.7978,4.3011,0.00040815,6.215e-05,0.0,0 STARLINK-4616,1 53734U 22107AL  24225.52781262  .00006215  00000-0  40815-3 0  9997,2 53734  53.2171 311.7042 0000362 355.7978   4.3011 15.08845692107270,6917.863,95.437,539.978,539.478,0.0
53734.0,STARLINK-4616,PAYLOAD,2024-08-12 17:26:11,15.08865491,0.0001845,53.2173,310.8135,97.7625,262.3577,0.00055201,8.514e-05,0.0,0 STARLINK-4616,1 53734U 22107AL  24225.72652271  .00008514  00000-0  55201-3 0  9995,2 53734  53.2173 310.8135 0001845  97.7625 262.3577 15.08865491107300,6917.802,95.436,540.944,538.391,0.0
53734.0,STARLINK-4616,PAYLOAD,2024-08-12 22:12:19,15.08900875,5.35e-05,53.2171,309.9275,62.6698,297.4348,0.001732,0.0002743,0.0,0 STARLINK-4616,1 53734U 22107AL  24225.92523028  .00027430  00000-0  17320-2 0  9991,2 53734  53.2171 309.9275 0000535  62.6698 297.4348 15.08900875107961,6917.694,95.434,539.929,539.189,0.0
53734.0,STARLINK-4616,PAYLOAD,2024-08-13 04:33:54,15.08798311,8.41e-05,53.2151,308.7351,109.1432,250.9651,-0.0013502,-0.00021687,0.0,0 STARLINK-4616,1 53734U 22107AL  24226.19021555 -.00021687  00000-0 -13502-2 0  9997,2 53734  53.2151 308.7351 0000841 109.1432 250.9651 15.08798311107370,6918.008,95.44,540.455,539.291,0.0
53734.0,STARLINK-4616,PAYLOAD,2024-08-13 12:30:50,15.08815798,0.0001501,53.2129,307.248,107.0395,253.0762,-0.00059357,-9.716e-05,0.0,0 STARLINK-4616,1 53734U 22107AL  24226.52141721 -.00009716  00000-0 -59357-3 0  9990,2 53734  53.2129 307.2480 0001501 107.0395 253.0762 15.08815798107423,6917.954,95.439,540.858,538.781,0.0
53734.0,STARLINK-4616,PAYLOAD,2024-08-13 22:03:09,15.08820588,0.0001375,53.2172,305.4658,116.3594,243.7539,-0.0002949,-4.976e-05,0.0,0 STARLINK-4616,1 53734U 22107AL  24226.91886083 -.00004976  00000-0 -29490-3 0  9998,2 53734  53.2172 305.4658 0001375 116.3594 243.7539 15.08820588108119,6917.94,95.439,540.756,538.854,0.0
53734.0,STARLINK-4616,PAYLOAD,2024-08-14 04:24:42,15.08833221,0.0001327,53.2152,304.2755,118.9809,241.1317,0.000358,5.413e-05,0.0,0 STARLINK-4616,1 53734U 22107AL  24227.18382126  .00005413  00000-0  35800-3 0  9994,2 53734  53.2152 304.2755 0001327 118.9809 241.1317 15.08833221107524,6917.901,95.438,540.684,538.848,0.0
53734.0,STARLINK-4616,PAYLOAD,2024-08-14 12:21:38,15.08846872,0.0001295,53.2159,302.7893,122.6556,237.4562,0.001408,0.00022196,0.0,0 STARLINK-4616,1 53734U 22107AL  24227.51502524  .00022196  00000-0  14080-2 0  9990,2 53734  53.2159 302.7893 0001295 122.6556 237.4562 15.08846872108204,6917.859,95.437,540.62,538.829,0.0
53734.0,STARLINK-4616,PAYLOAD,2024-08-14 21:53:56,15.08865231,0.000128,53.2163,301.0054,121.9791,238.1325,0.0013271,0.0002091,0.0,0 STARLINK-4616,1 53734U 22107AL  24227.91246025  .00020910  00000-0  13271-2 0  9998,2 53734  53.2163 301.0054 0001280 121.9791 238.1325 15.08865231108268,6917.803,95.436,540.554,538.783,0.0
53734.0,STARLINK-4616,PAYLOAD,2024-08-15 09:01:38,15.0884084,0.000113,53.216,298.9238,118.682,241.4285,0.00051371,7.897e-05,0.0,0 STARLINK-4616,1 53734U 22107AL  24228.37614234  .00007897  00000-0  51371-3 0  9993,2 53734  53.2160 298.9238 0001130 118.6820 241.4285 15.08840840108332,6917.878,95.438,540.525,538.961,0.0
53734.0,STARLINK-4616,PAYLOAD,2024-08-16 10:27:48,15.08853202,8.17e-05,53.2147,294.1642,113.4574,246.6504,0.00087199,0.00013622,0.0,0 STARLINK-4616,1 53734U 22107AL  24229.43598334  .00013622  00000-0  87199-3 0  9993,2 53734  53.2147 294.1642 0000817 113.4574 246.6504 15.08853202107868,6917.84,95.437,540.27,539.14,0.0
53734.0,STARLINK-4616,PAYLOAD,2024-08-17 03:57:03,15.08846482,0.0001002,53.2143,290.8958,84.9085,275.2022,0.00035562,5.377e-05,0.0,0 STARLINK-4616,1 53734U 22107AL  24230.16462364  .00005377  00000-0  35562-3 0  9993,2 53734  53.2143 290.8958 0001002  84.9085 275.2022 15.08846482107970,6917.861,95.437,540.419,539.032,0.0
53734.0,STARLINK-4616,PAYLOAD,2024-08-18 10:09:22,15.08847383,0.0001245,53.2155,285.2435,103.5454,256.5676,0.00021454,3.129e-05,0.0,0 STARLINK-4616,1 53734U 22107AL  24231.42318175  .00003129  00000-0  21454-3 0  9991,2 53734  53.2155 285.2435 0001245 103.5454 256.5676 15.08847383108168,6917.858,95.437,540.584,538.862,0.0
53734.0,STARLINK-4616,PAYLOAD,2024-08-19 03:38:37,15.08842933,0.0001376,53.2156,281.974,90.6919,269.4231,0.00011886,1.604e-05,0.0,0 STARLINK-4616,1 53734U 22107AL  24232.15182319  .00001604  00000-0  11886-3 0  9995,2 53734  53.2156 281.9740 0001376  90.6919 269.4231 15.08842933108276,6917.871,95.437,540.688,538.785,0.0
53734.0,STARLINK-4616,PAYLOAD,2024-08-19 10:00:10,15.08836932,0.0001153,53.2144,280.7821,86.9085,273.2039,-1.2632e-05,-4.89e-06,0.0,0 STARLINK-4616,1 53734U 22107AL  24232.41678557 -.00000489  00000-0 -12632-4 0  9991,2 53734  53.2144 280.7821 0001153  86.9085 273.2039 15.08836932108940,6917.89,95.438,540.552,538.957,0.0
53734.0,STARLINK-4616,PAYLOAD,2024-08-20 08:15:34,15.08839958,0.0001153,53.2153,276.6185,87.7735,272.3389,5.1376e-05,5.3e-06,0.0,0 STARLINK-4616,1 53734U 22107AL  24233.34414446  .00000530  00000-0  51376-4 0  9992,2 53734  53.2153 276.6185 0001153  87.7735 272.3389 15.08839958109083,6917.881,95.438,540.543,538.948,0.0
53734.0,STARLINK-4616,PAYLOAD,2024-08-21 08:06:21,15.08834248,0.0001177,53.2153,272.1582,87.7655,272.3472,9.0618e-05,1.154e-05,0.0,0 STARLINK-4616,1 53734U 22107AL  24234.33774895  .00001154  00000-0  90618-4 0  9994,2 53734  53.2153 272.1582 0001177  87.7655 272.3472 15.08834248108609,6917.898,95.438,540.577,538.949,0.0
